start=new Date('2022-11-01T00:00:00.000Z').valueOf();
sats=[{"SITE":"AFWTR","MEAN_ANOMALY":"274.3710","TIME_SYSTEM":"UTC","SEMIMAJOR_AXIS":"6941.134","FILE":"3639522","OBJECT_TYPE":"PAYLOAD","ARG_OF_PERICENTER":"85.7725","MEAN_MOTION":"15.01264083","CENTER_NAME":"EARTH","APOAPSIS":"564.284","LAUNCH_DATE":"2022-07-22","OBJECT_ID":"2022-084D","INCLINATION":"97.6524","MEAN_MOTION_DOT":"0.00002166","OBJECT_NAME":"STARLINK-4375","TLE_LINE2":"2 53192  97.6524   3.9670 0001851  85.7725 274.3710 15.01264083 16189","CLASSIFICATION_TYPE":"U","REV_AT_EPOCH":"1618","COUNTRY_CODE":"US","PERIOD":"95.919","EPHEMERIS_TYPE":"0","PERIAPSIS":"561.714","BSTAR":"0.00017312000000","REF_FRAME":"TEME","ELEMENT_SET_NO":"999","TLE_LINE1":"1 53192U 22084D   22304.63639744  .00002166  00000-0  17312-3 0  9991","RCS_SIZE":"LARGE","NORAD_CAT_ID":"53192","DECAY_DATE":null,"ECCENTRICITY":"0.00018510","GP_ID":"216619301","MEAN_MOTION_DDOT":"0.0000000000000","EPOCH":"2022-10-31T15:16:24.738816","RA_OF_ASC_NODE":"3.9670","MEAN_ELEMENT_THEORY":"SGP4"},{"EPOCH":"2022-10-31T15:24:24.407424","GP_ID":"216619641","MEAN_MOTION_DDOT":"0.0000000000000","RA_OF_ASC_NODE":"3.9842","MEAN_ELEMENT_THEORY":"SGP4","BSTAR":"0.00008448400000","REF_FRAME":"TEME","EPHEMERIS_TYPE":"0","PERIAPSIS":"561.666","TLE_LINE1":"1 53193U 22084E   22304.64194916  .00001026  00000-0  84484-4 0  9999","ELEMENT_SET_NO":"999","RCS_SIZE":"LARGE","NORAD_CAT_ID":"53193","DECAY_DATE":null,"ECCENTRICITY":"0.00019230","MEAN_MOTION_DOT":"0.00001026","INCLINATION":"97.6561","OBJECT_ID":"2022-084E","OBJECT_NAME":"STARLINK-4351","TLE_LINE2":"2 53193  97.6561   3.9842 0001923  64.6499 295.4924 15.01263484 16530","REV_AT_EPOCH":"1653","COUNTRY_CODE":"US","CLASSIFICATION_TYPE":"U","PERIOD":"95.919","FILE":"3639522","SEMIMAJOR_AXIS":"6941.136","MEAN_ANOMALY":"295.4924","SITE":"AFWTR","TIME_SYSTEM":"UTC","ARG_OF_PERICENTER":"64.6499","OBJECT_TYPE":"PAYLOAD","APOAPSIS":"564.336","MEAN_MOTION":"15.01263484","CENTER_NAME":"EARTH","LAUNCH_DATE":"2022-07-22"},{"REV_AT_EPOCH":"1553","COUNTRY_CODE":"US","CLASSIFICATION_TYPE":"U","PERIOD":"95.919","MEAN_MOTION_DOT":"0.00002289","INCLINATION":"97.6560","OBJECT_ID":"2022-084F","OBJECT_NAME":"STARLINK-4382","TLE_LINE2":"2 53194  97.6560   4.1084 0002012  60.7704 299.3721 15.01266380 15532","APOAPSIS":"564.389","MEAN_MOTION":"15.01266380","CENTER_NAME":"EARTH","LAUNCH_DATE":"2022-07-22","FILE":"3639522","SEMIMAJOR_AXIS":"6941.127","MEAN_ANOMALY":"299.3721","SITE":"AFWTR","TIME_SYSTEM":"UTC","OBJECT_TYPE":"PAYLOAD","ARG_OF_PERICENTER":"60.7704","MEAN_ELEMENT_THEORY":"SGP4","EPOCH":"2022-10-31T18:33:41.639904","MEAN_MOTION_DDOT":"0.0000000000000","GP_ID":"216619053","RA_OF_ASC_NODE":"4.1084","RCS_SIZE":"LARGE","NORAD_CAT_ID":"53194","DECAY_DATE":null,"ECCENTRICITY":"0.00020120","BSTAR":"0.00018268000000","REF_FRAME":"TEME","EPHEMERIS_TYPE":"0","PERIAPSIS":"561.596","TLE_LINE1":"1 53194U 22084F   22304.77339861  .00002289  00000-0  18268-3 0  9992","ELEMENT_SET_NO":"999"},{"TLE_LINE1":"1 53195U 22084G   22304.78728471  .00000806  00000-0  68712-4 0  9996","ELEMENT_SET_NO":"999","BSTAR":"0.00006871200000","REF_FRAME":"TEME","EPHEMERIS_TYPE":"0","PERIAPSIS":"564.342","ECCENTRICITY":"0.00016560","RCS_SIZE":"LARGE","DECAY_DATE":null,"NORAD_CAT_ID":"53195","RA_OF_ASC_NODE":"4.2263","EPOCH":"2022-10-31T18:53:41.398944","MEAN_MOTION_DDOT":"0.0000000000000","GP_ID":"216618715","MEAN_ELEMENT_THEORY":"SGP4","OBJECT_TYPE":"PAYLOAD","ARG_OF_PERICENTER":"79.2034","SEMIMAJOR_AXIS":"6943.627","FILE":"3639522","MEAN_ANOMALY":"280.9376","SITE":"AFWTR","TIME_SYSTEM":"UTC","LAUNCH_DATE":"2022-07-22","APOAPSIS":"566.642","MEAN_MOTION":"15.00455741","CENTER_NAME":"EARTH","OBJECT_NAME":"STARLINK-4404","TLE_LINE2":"2 53195  97.6569   4.2263 0001656  79.2034 280.9376 15.00455741 16214","MEAN_MOTION_DOT":"0.00000806","INCLINATION":"97.6569","OBJECT_ID":"2022-084G","PERIOD":"95.971","REV_AT_EPOCH":"1621","COUNTRY_CODE":"US","CLASSIFICATION_TYPE":"U"},{"MEAN_MOTION_DDOT":"0.0000000000000","GP_ID":"216573338","EPOCH":"2022-10-31T10:28:50.110176","RA_OF_ASC_NODE":"3.7708","MEAN_ELEMENT_THEORY":"SGP4","PERIAPSIS":"561.739","EPHEMERIS_TYPE":"0","BSTAR":"-0.00009789800000","REF_FRAME":"TEME","ELEMENT_SET_NO":"999","TLE_LINE1":"1 53196U 22084H   22304.43669109 -.00001316  00000-0 -97898-4 0  9997","NORAD_CAT_ID":"53196","DECAY_DATE":null,"RCS_SIZE":"LARGE","ECCENTRICITY":"0.00018720","OBJECT_ID":"2022-084H","MEAN_MOTION_DOT":"-0.00001316","INCLINATION":"97.6538","TLE_LINE2":"2 53196  97.6538   3.7708 0001872  78.5958 281.5476 15.01251374 15861","OBJECT_NAME":"STARLINK-4407","CLASSIFICATION_TYPE":"U","COUNTRY_CODE":"US","REV_AT_EPOCH":"1586","PERIOD":"95.920","SITE":"AFWTR","MEAN_ANOMALY":"281.5476","TIME_SYSTEM":"UTC","FILE":"3638611","SEMIMAJOR_AXIS":"6941.173","OBJECT_TYPE":"PAYLOAD","ARG_OF_PERICENTER":"78.5958","CENTER_NAME":"EARTH","MEAN_MOTION":"15.01251374","APOAPSIS":"564.338","LAUNCH_DATE":"2022-07-22"},{"PERIOD":"95.920","COUNTRY_CODE":"US","REV_AT_EPOCH":"1551","CLASSIFICATION_TYPE":"U","TLE_LINE2":"2 53197  97.6555   3.9574 0001816  97.8477 262.2953 15.01255329 15514","OBJECT_NAME":"STARLINK-4403","MEAN_MOTION_DOT":"-0.00001134","INCLINATION":"97.6555","OBJECT_ID":"2022-084J","LAUNCH_DATE":"2022-07-22","APOAPSIS":"564.287","CENTER_NAME":"EARTH","MEAN_MOTION":"15.01255329","OBJECT_TYPE":"PAYLOAD","ARG_OF_PERICENTER":"97.8477","FILE":"3639522","SEMIMAJOR_AXIS":"6941.161","SITE":"AFWTR","TIME_SYSTEM":"UTC","MEAN_ANOMALY":"262.2953","MEAN_ELEMENT_THEORY":"SGP4","RA_OF_ASC_NODE":"3.9574","EPOCH":"2022-10-31T15:08:24.891360","GP_ID":"216619899","MEAN_MOTION_DDOT":"0.0000000000000","ECCENTRICITY":"0.00018160","DECAY_DATE":null,"NORAD_CAT_ID":"53197","RCS_SIZE":"LARGE","TLE_LINE1":"1 53197U 22084J   22304.63084365 -.00001134  00000-0 -83681-4 0  9998","ELEMENT_SET_NO":"999","REF_FRAME":"TEME","BSTAR":"-0.00008368100000","EPHEMERIS_TYPE":"0","PERIAPSIS":"561.766"},{"MEAN_ELEMENT_THEORY":"SGP4","EPOCH":"2022-10-31T20:01:41.074752","GP_ID":"216619471","MEAN_MOTION_DDOT":"0.0000000000000","RA_OF_ASC_NODE":"4.1594","RCS_SIZE":"LARGE","DECAY_DATE":null,"NORAD_CAT_ID":"53198","ECCENTRICITY":"0.00018310","BSTAR":"-0.00001428000000","REF_FRAME":"TEME","EPHEMERIS_TYPE":"0","PERIAPSIS":"561.739","TLE_LINE1":"1 53198U 22084K   22304.83450318 -.00000242  00000-0 -14280-4 0  9994","ELEMENT_SET_NO":"999","REV_AT_EPOCH":"1620","COUNTRY_CODE":"US","CLASSIFICATION_TYPE":"U","PERIOD":"95.919","MEAN_MOTION_DOT":"-0.00000242","INCLINATION":"97.6557","OBJECT_ID":"2022-084K","OBJECT_NAME":"STARLINK-4385","TLE_LINE2":"2 53198  97.6557   4.1594 0001831  96.8386 263.3047 15.01260561 16204","APOAPSIS":"564.281","MEAN_MOTION":"15.01260561","CENTER_NAME":"EARTH","LAUNCH_DATE":"2022-07-22","FILE":"3639522","SEMIMAJOR_AXIS":"6941.145","TIME_SYSTEM":"UTC","SITE":"AFWTR","MEAN_ANOMALY":"263.3047","ARG_OF_PERICENTER":"96.8386","OBJECT_TYPE":"PAYLOAD"},{"RA_OF_ASC_NODE":"4.0198","MEAN_MOTION_DDOT":"0.0000000000000","GP_ID":"216619133","EPOCH":"2022-10-31T16:41:43.693440","MEAN_ELEMENT_THEORY":"SGP4","ELEMENT_SET_NO":"999","TLE_LINE1":"1 53199U 22084L   22304.69564460  .00000549  00000-0  47337-4 0  9990","PERIAPSIS":"561.612","EPHEMERIS_TYPE":"0","BSTAR":"0.00004733700000","REF_FRAME":"TEME","ECCENTRICITY":"0.00020240","RCS_SIZE":"LARGE","DECAY_DATE":null,"NORAD_CAT_ID":"53199","OBJECT_NAME":"STARLINK-4395","TLE_LINE2":"2 53199  97.6557   4.0198 0002024 109.2536 250.8907 15.01258516 15522","OBJECT_ID":"2022-084L","MEAN_MOTION_DOT":"0.00000549","INCLINATION":"97.6557","PERIOD":"95.920","CLASSIFICATION_TYPE":"U","REV_AT_EPOCH":"1552","COUNTRY_CODE":"US","OBJECT_TYPE":"PAYLOAD","ARG_OF_PERICENTER":"109.2536","SITE":"AFWTR","MEAN_ANOMALY":"250.8907","TIME_SYSTEM":"UTC","SEMIMAJOR_AXIS":"6941.151","FILE":"3639522","LAUNCH_DATE":"2022-07-22","MEAN_MOTION":"15.01258516","CENTER_NAME":"EARTH","APOAPSIS":"564.421"},{"EPOCH":"2022-10-31T18:23:02.068224","GP_ID":"216619302","MEAN_MOTION_DDOT":"0.0000000000000","RA_OF_ASC_NODE":"4.0887","MEAN_ELEMENT_THEORY":"SGP4","BSTAR":"-0.00003691200000","REF_FRAME":"TEME","EPHEMERIS_TYPE":"0","PERIAPSIS":"561.752","TLE_LINE1":"1 53200U 22084M   22304.76599616 -.00000533  00000-0 -36912-4 0  9994","ELEMENT_SET_NO":"999","RCS_SIZE":"LARGE","NORAD_CAT_ID":"53200","DECAY_DATE":null,"ECCENTRICITY":"0.00017830","MEAN_MOTION_DOT":"-0.00000533","INCLINATION":"97.6559","OBJECT_ID":"2022-084M","OBJECT_NAME":"STARLINK-4417","TLE_LINE2":"2 53200  97.6559   4.0887 0001783  87.0620 273.0808 15.01267197 16196","REV_AT_EPOCH":"1619","COUNTRY_CODE":"US","CLASSIFICATION_TYPE":"U","PERIOD":"95.919","SEMIMAJOR_AXIS":"6941.125","FILE":"3639522","TIME_SYSTEM":"UTC","SITE":"AFWTR","MEAN_ANOMALY":"273.0808","OBJECT_TYPE":"PAYLOAD","ARG_OF_PERICENTER":"87.0620","APOAPSIS":"564.227","MEAN_MOTION":"15.01267197","CENTER_NAME":"EARTH","LAUNCH_DATE":"2022-07-22"},{"OBJECT_ID":"2022-084N","INCLINATION":"97.6556","MEAN_MOTION_DOT":"0.00001755","OBJECT_NAME":"STARLINK-4405","TLE_LINE2":"2 53201  97.6556   4.0807 0001992 103.6319 256.5127 15.01260821 15532","CLASSIFICATION_TYPE":"U","REV_AT_EPOCH":"1553","COUNTRY_CODE":"US","PERIOD":"95.919","MEAN_ANOMALY":"256.5127","SITE":"AFWTR","TIME_SYSTEM":"UTC","FILE":"3639522","SEMIMAJOR_AXIS":"6941.144","ARG_OF_PERICENTER":"103.6319","OBJECT_TYPE":"PAYLOAD","MEAN_MOTION":"15.01260821","CENTER_NAME":"EARTH","APOAPSIS":"564.392","LAUNCH_DATE":"2022-07-22","MEAN_MOTION_DDOT":"0.0000000000000","GP_ID":"216619642","EPOCH":"2022-10-31T18:12:22.431744","RA_OF_ASC_NODE":"4.0807","MEAN_ELEMENT_THEORY":"SGP4","PERIAPSIS":"561.627","EPHEMERIS_TYPE":"0","REF_FRAME":"TEME","BSTAR":"0.00014122000000","ELEMENT_SET_NO":"999","TLE_LINE1":"1 53201U 22084N   22304.75859296  .00001755  00000-0  14122-3 0  9990","RCS_SIZE":"LARGE","NORAD_CAT_ID":"53201","DECAY_DATE":null,"ECCENTRICITY":"0.00019920"}];
